OBJECT_NAME,OBJECT_ID,EPOCH,MEAN_MOTION,ECCENTRICITY,INCLINATION,RA_OF_ASC_NODE,ARG_OF_PERICENTER,MEAN_ANOMALY,EPHEMERIS_TYPE,CLASSIFICATION_TYPE,NORAD_CAT_ID,ELEMENT_SET_NO,REV_AT_EPOCH,BSTAR,MEAN_MOTION_DOT,MEAN_MOTION_DDOT
IRIDIUM 33 DEB,1997-051LJ,2024-12-31T17:45:20.326176,14.39035572,.0015063,86.3411,181.0193,278.8802,91.3126,0,U,34765,999,82635,.16169E-2,.5018E-4,0
IRIDIUM 33 DEB,1997-051LU,2024-12-30T19:03:15.279840,14.81256801,.0018033,86.3545,182.4404,32.5510,29.0296,0,U,34775,999,83168,.90606E-2,.71469E-3,0
IRIDIUM 33 DEB,1997-051MH,2024-12-31T12:47:10.089888,14.49117921,.0020199,86.3941,199.7332,172.2815,217.0030,0,U,34833,999,82695,.24135E-2,.922E-4,0
IRIDIUM 33 DEB,1997-051MQ,2024-12-31T02:18:21.057120,14.67738595,.0020756,86.3159,111.7415,313.4039,165.8252,0,U,34870,999,83810,.39413E-2,.22594E-3,0
IRIDIUM 33 DEB,1997-051MY,2024-12-30T15:43:20.157024,14.61413923,.0028236,86.3325,121.7443,327.0462,91.8470,0,U,34896,999,82541,.29868E-2,.14902E-3,0
IRIDIUM 33 DEB,1997-051NF,2024-12-31T05:39:06.566688,14.38855218,.0114326,86.1493,166.7409,359.5790,174.8817,0,U,34926,999,81445,.9243E-2,.30815E-3,0
IRIDIUM 33 DEB,1997-051NH,2024-12-30T15:48:38.186784,14.94333765,.0016449,86.3895,137.4037,128.0187,232.2530,0,U,34928,999,61017,.7885E-2,.85911E-3,0
IRIDIUM 33 DEB,1997-051NR,2024-12-31T19:26:31.763904,14.40141216,.0020456,86.3704,204.1308,288.8010,82.7986,0,U,34985,999,82193,.13944E-2,.4432E-4,0
IRIDIUM 33 DEB,1997-051NX,2024-12-31T04:17:02.806944,14.45175483,.0008939,86.3268,159.6142,152.1867,207.9814,0,U,35051,999,81986,.22826E-2,.8017E-4,0
IRIDIUM 33 DEB,1997-051NY,2024-12-31T17:18:01.101312,14.37825795,.0012825,86.3335,168.7076,131.7692,228.4604,0,U,35052,999,82302,.77721E-3,.2363E-4,0
IRIDIUM 33 DEB,1997-051PF,2024-12-31T20:30:23.761152,14.48930088,.011532,86.2264,212.2713,286.3309,72.5238,0,U,35080,999,64620,.11261E-1,.46666E-3,0
IRIDIUM 33 DEB,1997-051PL,2024-12-30T23:58:49.248768,15.35350425,.0007842,86.2948,103.3272,288.0484,71.9912,0,U,35296,999,2863,.13097E-1,.478055E-2,0
IRIDIUM 33 DEB,1997-051PM,2024-12-31T20:13:39.359424,14.42852962,.0015039,86.3874,210.0057,205.9968,154.0479,0,U,35297,999,65434,.20224E-2,.6779E-4,0
IRIDIUM 33 DEB,1997-051PP,2024-12-31T18:32:10.677120,14.37211260,.0057635,86.2920,183.3168,159.8210,212.1264,0,U,35299,999,81354,.45465E-2,.13827E-3,0
IRIDIUM 33 DEB,1997-051QA,2024-12-29T17:50:39.877440,14.47250035,.0013537,86.3618,175.4450,180.9238,179.1942,0,U,35480,999,81993,.20162E-2,.7398E-4,0
IRIDIUM 33 DEB,1997-051QE,2024-12-30T17:04:41.280096,14.77345535,.0030091,86.3632,152.1992,286.3102,73.4809,0,U,35484,999,56856,.76624E-2,.55232E-3,0
IRIDIUM 33 DEB,1997-051QJ,2024-12-31T17:00:57.597408,14.74051332,.0031998,86.3294,99.2365,170.0113,190.1748,0,U,35488,999,83152,.38766E-2,.25804E-3,0
IRIDIUM 33 DEB,1997-051QN,2024-12-31T19:30:29.481408,14.70700505,.0012883,86.3604,142.2546,314.2006,45.8151,0,U,35616,999,82470,.51076E-2,.31283E-3,0
IRIDIUM 33 DEB,1997-051QQ,2024-12-31T15:55:23.630880,14.50252300,.0031424,86.3405,144.5810,96.9628,263.5153,0,U,35618,999,60374,.21112E-2,.8292E-4,0
IRIDIUM 33 DEB,1997-051QS,2024-12-31T09:56:59.106336,14.27716607,.0163215,86.3928,2.1583,300.3541,58.1597,0,U,35620,999,55009,.10698E-1,.30531E-3,0
IRIDIUM 33 DEB,1997-051QU,2024-12-31T15:36:27.998784,14.77309807,.0017313,86.2097,69.2637,82.8844,69.0007,0,U,35622,999,82215,.56637E-2,.40512E-3,0
IRIDIUM 33 DEB,1997-051RA,2024-12-31T04:19:58.693152,14.60510863,.0014648,86.3614,162.7665,73.2328,287.0489,0,U,35628,999,81375,.38251E-2,.18637E-3,0
IRIDIUM 33 DEB,1997-051RD,2024-12-31T17:00:50.788224,14.45965006,.0017109,86.3692,169.8020,188.6251,182.6516,0,U,35631,999,82194,.1474E-2,.5274E-4,0
IRIDIUM 33 DEB,1997-051RJ,2024-12-30T05:46:14.835072,14.15048849,.0173363,86.1058,174.6168,303.1489,232.6553,0,U,35680,999,79564,.862E-2,.19354E-3,0
IRIDIUM 33 DEB,1997-051RX,2024-12-31T17:55:03.884736,14.64597139,.0023929,86.3329,120.9820,310.9937,48.9206,0,U,35744,999,82255,.34633E-2,.18516E-3,0
IRIDIUM 33 DEB,1997-051SF,2024-12-29T01:57:51.188544,14.71235228,.0016334,86.3401,128.6864,302.4033,57.5603,0,U,35797,999,82193,.41877E-2,.25968E-3,0
IRIDIUM 33 DEB,1997-051SQ,2024-12-24T18:34:12.659232,14.52031895,.0014233,86.3497,175.3868,174.2275,185.9097,0,U,35806,999,81192,.2843E-2,.11533E-3,0
IRIDIUM 33 DEB,1997-051ST,2024-12-31T14:58:43.979232,14.66428548,.0015668,86.3324,131.8010,5.4567,354.6814,0,U,35809,999,81718,.44601E-2,.24797E-3,0
IRIDIUM 33 DEB,1997-051SW,2024-12-30T07:26:02.893344,14.41085252,.0016826,86.3729,206.7526,242.8389,117.1096,0,U,35846,999,66321,.17241E-2,.5578E-4,0
