IRIDIUM 33 DEB          
1 34765U 97051LJ  24366.73981859  .00005018  00000+0  16169-2 0  9996
2 34765  86.3411 181.0193 0015063 278.8802  91.3126 14.39035572826358
IRIDIUM 33 DEB          
1 34775U 97051LU  24365.79392685  .00071469  00000+0  90606-2 0  9996
2 34775  86.3545 182.4404 0018033  32.5510  29.0296 14.81256801831683
IRIDIUM 33 DEB          
1 34833U 97051MH  24366.53275567  .00009220  00000+0  24135-2 0  9993
2 34833  86.3941 199.7332 0020199 172.2815 217.0030 14.49117921826957
IRIDIUM 33 DEB          
1 34870U 97051MQ  24366.09607705  .00022594  00000+0  39413-2 0  9992
2 34870  86.3159 111.7415 0020756 313.4039 165.8252 14.67738595838103
IRIDIUM 33 DEB          
1 34896U 97051MY  24365.65509441  .00014902  00000+0  29868-2 0  9996
2 34896  86.3325 121.7443 0028236 327.0462  91.8470 14.61413923825419
IRIDIUM 33 DEB          
1 34926U 97051NF  24366.23549267  .00030815  00000+0  92430-2 0  9991
2 34926  86.1493 166.7409 0114326 359.5790 174.8817 14.38855218814458
IRIDIUM 33 DEB          
1 34928U 97051NH  24365.65877531  .00085911  00000+0  78850-2 0  9993
2 34928  86.3895 137.4037 0016449 128.0187 232.2530 14.94333765610170
IRIDIUM 33 DEB          
1 34985U 97051NR  24366.81008986  .00004432  00000+0  13944-2 0  9997
2 34985  86.3704 204.1308 0020456 288.8010  82.7986 14.40141216821938
IRIDIUM 33 DEB          
1 35051U 97051NX  24366.17850471  .00008017  00000+0  22826-2 0  9997
2 35051  86.3268 159.6142 0008939 152.1867 207.9814 14.45175483819861
IRIDIUM 33 DEB          
1 35052U 97051NY  24366.72084608  .00002363  00000+0  77721-3 0  9993
2 35052  86.3335 168.7076 0012825 131.7692 228.4604 14.37825795823029
IRIDIUM 33 DEB          
1 35080U 97051PF  24366.85444168  .00046666  00000+0  11261-1 0  9998
2 35080  86.2264 212.2713 0115320 286.3309  72.5238 14.48930088646207
IRIDIUM 33 DEB          
1 35296U 97051PL  24365.99918112  .00478055  00000+0  13097-1 0  9996
2 35296  86.2948 103.3272 0007842 288.0484  71.9912 15.35350425 28638
IRIDIUM 33 DEB          
1 35297U 97051PM  24366.84281666  .00006779  00000+0  20224-2 0  9990
2 35297  86.3874 210.0057 0015039 205.9968 154.0479 14.42852962654341
IRIDIUM 33 DEB          
1 35299U 97051PP  24366.77234580  .00013827  00000+0  45465-2 0  9993
2 35299  86.2920 183.3168 0057635 159.8210 212.1264 14.37211260814681
IRIDIUM 33 DEB          
1 35480U 97051QA  24364.74351710  .00007398  00000+0  20162-2 0  9998
2 35480  86.3618 175.4450 0013537 180.9238 179.1942 14.47250035819934
IRIDIUM 33 DEB          
1 35484U 97051QE  24365.71158889  .00055232  00000+0  76624-2 0  9996
2 35484  86.3632 152.1992 0030091 286.3102  73.4809 14.77345535568563
IRIDIUM 33 DEB          
1 35488U 97051QJ  24366.70899997  .00025804  00000+0  38766-2 0  9999
2 35488  86.3294  99.2365 0031998 170.0113 190.1748 14.74051332831528
IRIDIUM 33 DEB          
1 35616U 97051QN  24366.81284122  .00031283  00000+0  51076-2 0  9999
2 35616  86.3604 142.2546 0012883 314.2006  45.8151 14.70700505826911
IRIDIUM 33 DEB          
1 35618U 97051QQ  24366.66346795  .00008292  00000+0  21112-2 0  9991
2 35618  86.3405 144.5810 0031424  96.9628 263.5153 14.50252300603745
IRIDIUM 33 DEB          
1 35620U 97051QS  24366.41457299  .00030531  00000+0  10698-1 0  9996
2 35620  86.3928   2.1583 0163215 300.3541  58.1597 14.27716607550092
IRIDIUM 33 DEB          
1 35622U 97051QU  24366.65032406  .00040512  00000+0  56637-2 0  9997
2 35622  86.2097  69.2637 0017313  82.8844  69.0007 14.77309807822150
IRIDIUM 33 DEB          
1 35628U 97051RA  24366.18054043  .00018637  00000+0  38251-2 0  9997
2 35628  86.3614 162.7665 0014648  73.2328 287.0489 14.60510863813751
IRIDIUM 33 DEB          
1 35631U 97051RD  24366.70892116  .00005274  00000+0  14740-2 0  9990
2 35631  86.3692 169.8020 0017109 188.6251 182.6516 14.45965006821942
IRIDIUM 33 DEB          
1 35680U 97051RJ  24365.24044948  .00019354  00000+0  86200-2 0  9998
2 35680  86.1058 174.6168 0173363 303.1489 232.6553 14.15048849795647
IRIDIUM 33 DEB          
1 35744U 97051RX  24366.74657274  .00018516  00000+0  34633-2 0  9999
2 35744  86.3329 120.9820 0023929 310.9937  48.9206 14.64597139822555
IRIDIUM 33 DEB          
1 35797U 97051SF  24364.08184246  .00025968  00000+0  41877-2 0  9993
2 35797  86.3401 128.6864 0016334 302.4033  57.5603 14.71235228821936
IRIDIUM 33 DEB          
1 35806U 97051SQ  24359.77375763  .00011533  00000+0  28430-2 0  9993
2 35806  86.3497 175.3868 0014233 174.2275 185.9097 14.52031895811928
IRIDIUM 33 DEB          
1 35809U 97051ST  24366.62412013  .00024797  00000+0  44601-2 0  9992
2 35809  86.3324 131.8010 0015668   5.4567 354.6814 14.66428548817184
IRIDIUM 33 DEB          
1 35846U 97051SW  24365.30975571  .00005578  00000+0  17241-2 0  9996
2 35846  86.3729 206.7526 0016826 242.8389 117.1096 14.41085252663215
